[{"OBJECT_NAME":"KUIPER-00055","OBJECT_ID":"2025-134R","EPOCH":"2026-03-09T21:39:01.043424","MEAN_MOTION":15.20562207,"ECCENTRICITY":0.00015256,"INCLINATION":51.8904,"RA_OF_ASC_NODE":178.7702,"ARG_OF_PERICENTER":14.9809,"MEAN_ANOMALY":345.1216,"EPHEMERIS_TYPE":0,"CLASSIFICATION_TYPE":"U","NORAD_CAT_ID":64515,"ELEMENT_SET_NO":999,"REV_AT_EPOCH":4085,"BSTAR":0.00087666982,"MEAN_MOTION_DOT":0.00019176,"MEAN_MOTION_DDOT":0},{"OBJECT_NAME":"SCORPION (RS89S)","OBJECT_ID":"2025-313AX","EPOCH":"2026-03-09T23:09:54.194112","MEAN_MOTION":15.2196038,"ECCENTRICITY":0.00105059,"INCLINATION":97.4004,"RA_OF_ASC_NODE":145.3058,"ARG_OF_PERICENTER":344.4953,"MEAN_ANOMALY":15.596,"EPHEMERIS_TYPE":0,"CLASSIFICATION_TYPE":"U","NORAD_CAT_ID":67293,"ELEMENT_SET_NO":999,"REV_AT_EPOCH":1086,"BSTAR":0.00025386995,"MEAN_MOTION_DOT":5.728e-5,"MEAN_MOTION_DDOT":0}]
